{"type": "FeatureCollection", "features": [{"type": "Feature", "properties": {"identifier": "3ae339e0-49c4-4ece-a901-4553ebaa68cd", "name": "Ferienwohnung Grubi", "description": "<p class=\"MsoNormal\">Eine Ferienwohnung inmitten der Bergwelt. In unmittelbarer\nN\u00e4he zur Skipiste. Mitten im Wanderparadies. Wir freuen uns auf dich.<br>\u00dcber den Button gelangst du direkt zum Buchungsportal oder\nkannst eine E-Mail f\u00fcr deine Reservationsanfrage an den Vermieter schicken.</p>", "image": "https://jrtagpimtsoch.sos-ch-dk-2.exoscale-cdn.com/catalog/0/4/7/6/047638bdd4cfa5b64e3141547e2933e2372d31e8_Ferienwohnung_Grubi.jpg", "openstreetmap_id": "way/294654189"}, "geometry": {"type": "Point", "coordinates": ["8.209498353107207", "46.73219305"]}}, {"type": "Feature", "properties": {"identifier": "45852ea5-2f44-41be-b1e4-6075d28cbf06", "name": "Bergidyll 6 Bett Wohnung", "description": "<p class=\"MsoNormal\">Eine Ferienwohnung inmitten der Bergwelt. In unmittelbarer\nN\u00e4he zur Skipiste. Mitten im Wanderparadies. Wir freuen uns auf dich.&nbsp;</p><p>\n\n\n\n</p><p class=\"MsoNormal\">\u00dcber den Button gelangst du direkt zum Buchungsportal oder\nkannst eine E-Mail f\u00fcr deine Reservationsanfrage an den Vermieter schicken.<o:p></o:p></p>", "url": "https://www.bergidyll.ch", "image": "https://jrtagpimtsoch.sos-ch-dk-2.exoscale-cdn.com/catalog/c/e/5/6/ce56a0030c1de46fd502b085fef5d94cf396d69d_Bergidyll_Sommer.jpg", "openstreetmap_id": "map=19/46.624962/8.035936"}, "geometry": {"type": "Point", "coordinates": ["8.035853106889345", "46.625090400000005"]}}, {"type": "Feature", "properties": {"identifier": "8885db0b-4dfa-4b10-b45d-66d7ffce5197", "name": "Gruebenh\u00fctte AACB", "description": "<p>Die Gruebenh&uuml;tte vom AAC Basel ist eine kleine, gem&uuml;tliche Unterkunft f&uuml;r Alpinisten und Wanderer, die das Einfache sch&auml;tzen. Sie liegt auf einem Felssporn 200 Meter &uuml;ber dem Gruebengletscher und -See und bietet Kletterinnen und Alpinisten eine gut gelegene Unterkunft in urspr&uuml;nglichen und verlassener Umgebung.</p><p>Die H&uuml;tte ist gr&ouml;sstenteils unbewartet. Es besteht kein Telefonanschluss, nur Notfunk.</p>", "url": "https://gruebenhuette.ch/", "image": "https://jrtagpimtsoch.sos-ch-dk-2.exoscale-cdn.com/catalog/0/9/3/d/093dc6bdab0741925321f05eae2bcfe0e9dad4ef_Biwak_Gruebenh__tte_Brigitte_Leuthold.jpg", "openstreetmap_id": "node/3335142697"}, "geometry": {"type": "Point", "coordinates": ["8.2593064", "46.6058833"]}}, {"type": "Feature", "properties": {"identifier": "a8e192bd-8f9c-4d32-8016-976e71004bff", "name": "Camping Sand", "description": "<p>Der Platz liegt am Fusse der Eigernordwand, direkt an einem Quellbach und mitten in &quot;Natur pur&quot;. Neben dem Platz im\u00a0Talboden, befindet sich die &quot;Landi&quot; (Einkaufen), die Busshaltestelle und der Bahnhof Grund (200m). Im Winter f\u00fchrt die technisch beschneite Skipiste wieder zur\u00fcck zum Campingplatz.</p><p></p>", "url": "https://campingsand.jimdofree.com/", "image": "https://jrtagpimtsoch.sos-ch-dk-2.exoscale-cdn.com/catalog/3/a/6/4/3a643c2efc1be4b9f95fce044910b40cba1ab24b_image__1_.jpg", "openstreetmap_id": "map=18/46.619138/8.028098"}, "geometry": {"type": "Point", "coordinates": ["8.028098344802858", "46.61913946628652"]}}, {"type": "Feature", "properties": {"identifier": "d1310c87-020a-404b-8877-a34c2ade887e", "name": "FeWo Chalet Sunneschyn", "description": "<p>1 km vom Dorfkern entfernt. K\u00fcche und Bad sind frisch renoviert.<br>Direkte Aussicht zum Eiger und der Eigernordwand, Mettenberg, Wetterhorn und Finsteraarhorn. N\u00e4chster \u00d6V Anschluss (Bus 124) ca. 40m entfernt. Optimaler Ausgangspunkt f\u00fcr Ausfl\u00fcge oder einfach zum geniessen.</p>", "image": "https://jrtagpimtsoch.sos-ch-dk-2.exoscale-cdn.com/catalog/3/d/0/6/3d06fb92615f88e794c847f2a241f4f8bfbabec5_FeWo_Chalet_Sunneschyn.jpg", "openstreetmap_id": "way/320821357"}, "geometry": {"type": "Point", "coordinates": ["8.0204726", "46.6297053"]}}, {"type": "Feature", "properties": {"identifier": "ee11e409-4b00-430a-9226-8f5352db1f6d", "name": "HEIMET, heimelige Ferienwohnung auf dem Bauernhof", "description": "<p class=\"MsoNormal\">Eine Ferienwohnung inmitten der Bergwelt. In unmittelbarer\nN\u00e4he zur Skipiste. Mitten im Wanderparadies. Wir freuen uns auf dich.<o:p></o:p></p><p class=\"MsoNormal\">\u00dcber den Button gelangst du direkt zum Buchungsportal oder\nkannst eine E-Mail f\u00fcr deine Reservationsanfrage an den Vermieter schicken.</p>", "url": "https://www.beo-apartments.ch", "image": "https://jrtagpimtsoch.sos-ch-dk-2.exoscale-cdn.com/catalog/b/3/3/d/b33dff6bf941654a7bc433ca5a6b0b19d8f7a30d_Heimet.jpeg", "openstreetmap_id": "node/6919987313"}, "geometry": {"type": "Point", "coordinates": ["8.103564977645876", "46.74556557132895"]}}]}