{"type": "FeatureCollection", "features": [{"type": "Feature", "properties": {"identifier": "07f97878-19bb-4176-8864-c8226510616c", "name": "Lauteraarhorn", "description": "Ausgangspunkt f\u00fcr den Normalweg auf das Lauteraarhorn sind die Lauteraarh\u00fctte und das Aarbiwak, erreichbar vom Grimsel Hospiz. Neben der Normalroute gibt es lange, anspruchsvolle, kombinierte Anstiege \u00fcber die s\u00fcdliche oder n\u00f6rdliche Ostwandrippe. \n\nDie Erstbesteigung wurde am 8. August 1842 durch Pierre Jean \u00c9douard Desor, Christian Girard, Arnold Escher von der Linth und den F\u00fchrern Melchior Bannholzer aus dem Haslital und Jakob Leuthold aus Grindelwald unternommen.", "url": "https://bergsteigerschule-rosenlaui.ch/de/contact/formular", "image": "https://jrtagpimtsoch.sos-ch-dk-2.exoscale-cdn.com/catalog/f/4/f/0/f4f03b1ce38c3e56b3c155070c64a0e9eaddbee3_csm_Lauteraarh__tte_ffd09c79b2.jpg", "openstreetmap_id": "node/413907884"}, "geometry": {"type": "Point", "coordinates": ["8.128207", "46.5832664"]}}, {"type": "Feature", "properties": {"identifier": "112869a1-66c6-4b0a-9160-bbc9d9638c4d", "name": "Digitaler BASE-Jump Infoweg", "description": "<p>smarTrails sind digitale R&auml;tsel- und Erlebniswege, die dir an verschiedenen Orten in der Jungfrau Region kostenlos zur Verf&uuml;gung stehen. Alles, was du f&uuml;r die Teilnahme brauchst, ist ein internetf&auml;higes Smartphone. &Uuml;ber eine virtuelle Karte wirst du zu verschiedenen Posten gef&uuml;hrt. Sobald du dich bei den entsprechenden Koordinaten befindest, werden die digitalen Inhalte auf dem Handydisplay angezeigt. Willkommen auf dem digitalen Infoweg &uuml;ber das BASE-Jumping hier im sch&ouml;nen Lauterbrunnental! Lauterbrunnen ist ein Zufluchtsort f&uuml;r viele und ist nicht nur bei Wanderern und Naturliebhabern beliebt, sondern auch bei Extremsportlern, n&auml;mlich den BASE-Jumpern.</p><p>&nbsp;</p>", "url": "https://lauterbrunnen.swiss", "image": "https://jrtagpimtsoch.sos-ch-dk-2.exoscale-cdn.com/catalog/d/1/0/9/d1091c940c9d3223bc33fc6aec60ab96b003ecd4_27845879_2033239493359343_1437898586_o_j.jpg", "openstreetmap_id": "node/10723245131"}, "geometry": {"type": "Point", "coordinates": ["7.9074586", "46.5970418"]}}, {"type": "Feature", "properties": {"identifier": "1939d702-66c0-459f-91dd-8eccf41d32c6", "name": "Detektiv Trail Muerren", "description": "<p>Gehe zum Startpunkt der Schatzsuche (Start). Dort wartet bereits das erste R&auml;tsel. Folge anschliessend den Wegbeschreibungen. Dabei kommst du immer wieder an R&auml;tselposten vorbei, wo ein R&auml;tsel auf dich wartet, welches du durch Hinweise an diesem Ort l&ouml;sen kannst. Am Ende wartet eine Schatztruhe. Der Code zur &Ouml;ffnung der Schatztruhe errechnet sich aus den L&ouml;sungen der einzelnen R&auml;tsel. Falls sich die Schatztruhe &ouml;ffnet, kannst du den darin enthaltenen Schatz im Bistro einl&ouml;sen (pro Kind ein Preis)<br><br><strong>Hinweis:</strong> Die Bergbahn f&auml;hrt st&uuml;ndlich ab M&uuml;rren: erste Abfahrt: 08:58 Uhr / letzte Abfahrt: 15:58 Uhr. <br>Die Seilbahn ist wegen Modernisierungsarbeiten bis zum 10. Juli geschlossen.</p>", "url": "https://muerren.swiss", "image": "https://jrtagpimtsoch.sos-ch-dk-2.exoscale-cdn.com/catalog/7/7/0/e/770e5a81811b6b0443675029bf49ed46593bfd5e_Detektiv_Trail_Gr__tschalp_M__rren.jpg", "openstreetmap_id": "way/226984253"}, "geometry": {"type": "Point", "coordinates": ["7.8910160064697275", "46.596331282560804"]}}, {"type": "Feature", "properties": {"identifier": "359aef67-84fa-4c42-86ce-3f82f0a2e8bc", "name": "Jungfrau", "description": "Die Jungfrau ist der h\u00f6chste Berg des weltber\u00fchmten Dreigestirns Eiger, M\u00f6nch and Jungfrau.\n\nVom Jungfraujoch f\u00fchrt eine abwechslungsreiche Route in Firn und Fels auf diesen sch\u00f6nen und imposanten Berg.", "url": "https://outdoor.ch/de/", "image": "https://jrtagpimtsoch.sos-ch-dk-2.exoscale-cdn.com/catalog/6/2/d/8/62d87eb97a1f61ad66c341acdc08aae4a31f30c1_csm_Jungfrau__9__4745fd7967.jpg", "openstreetmap_id": "node/4921696146"}, "geometry": {"type": "Point", "coordinates": ["7.9679275", "46.5788219"]}}, {"type": "Feature", "properties": {"identifier": "3c41d7d8-cb5c-4898-b78f-76bf6353c07c", "name": "Wo bist du, kleiner Challifloh?", "description": "smarTrails sind digitale R\u00e4tsel- und Erlebniswege, die dir an verschiedenen Orten in der Jungfrau Region kostenlos zur Verf\u00fcgung stehen.\n\nAlles, was du f\u00fcr die Teilnahme brauchst, ist ein internetf\u00e4higes Smartphone. \u00dcber eine virtuelle Karte wirst du zu verschiedenen Posten gef\u00fchrt. Sobald du dich bei den entsprechenden Koordinaten befindest, werden die digitalen Inhalte auf dem Handydisplay angezeigt.\n\nDieses interaktive R\u00e4tsel-Erlebnis nimmt dich mit auf einen spannenden Spaziergang durch die Gegend oberhalb von Grindelwald.\n\nBegleite R\u00f6si den Sudeten-Mohrenfalter auf einem wundersch\u00f6nen Rundgang, und erfahre dabei allerlei Spannendes und Lehrreiches \u00fcber die Natur und die Tiere, die hier leben.\n\nDas Spiel eignet sich besonders f\u00fcr Familien mit Kindern ab 5 Jahren \u2013 aber nicht nur. Da es unterwegs knifflige R\u00e4tsel zu l\u00f6sen gibt, macht das Abenteuer auch Erwachsenen Spass.", "url": "https://grindelwald.swiss", "image": "https://jrtagpimtsoch.sos-ch-dk-2.exoscale-cdn.com/catalog/b/2/9/b/b29b7e8113917ed369e5e4a25d1bb9770e91fc86_kachelbild1.jpeg", "openstreetmap_id": "way/81742666"}, "geometry": {"type": "Point", "coordinates": ["8.071357011795046", "46.63206698198163"]}}, {"type": "Feature", "properties": {"identifier": "3cd7f689-dffb-4d4f-a168-eb1f663ca9e2", "name": "Dorfrundgang M\u00fcrren", "description": "<p>W&auml;hrend des Dorfrundgangs begehst du nicht nur die paar Strassen, die sich durch M&uuml;rren ziehen. Nein, du besuchst auch ein St&uuml;ck der Vergangenheit, die das Bergdorf zu dem gemacht haben, was es heute ist. Erfahre, wie dieses Juwel der Alpen vom Wallis her besiedelt wurde, wer hier f&uuml;r den ersten Alpen-&Uuml;berquerungsflug im Ballon gestartet ist und wie M&uuml;rren zur Wiege des alpinen Skisports wurde. Auf dem gem&uuml;tlichen Spaziergang f&uuml;hrt dich unser englischsprechender Guide innerhalb von ca. einer Stunde durch das Dorf. Der Treffpunkt ist beim Alpinen Sportzentrum in M&uuml;rren.</p><p>&nbsp;</p>", "url": "https://muerren.swiss/de/", "image": "https://jrtagpimtsoch.sos-ch-dk-2.exoscale-cdn.com/catalog/c/1/7/3/c1730b6e0d0969101c2ed0320f246679db5d117e_image00022.jpeg", "openstreetmap_id": "way/548551235"}, "geometry": {"type": "Point", "coordinates": ["7.895324281060606", "46.562483"]}}, {"type": "Feature", "properties": {"identifier": "3fb1d29b-6bcd-4bd5-89b1-c04805debe1c", "name": "Sustenhorn", "description": "Das Sustenhorn wartet mit einem wundersch\u00f6nen Panorama auf seine Besucher*innen. Die Besteigung gilt im Sommer als einfache Hochtour, obwohl der Gletscher teilweise spaltenreich ist. Im sp\u00e4ten Fr\u00fchjahr ist das Sustenhorn f\u00fcr viele Skitoureng\u00e4nger*innen der Saisonabschluss. Als Formtest dient die Besteigung von Gw\u00e4chten- und Sustenhorn ab Hotel Steingletscher in einem Tag. Wer es gem\u00fctlich mag, legt einen Halt ein in der Tierberglih\u00fctte.\n\nAuf der Berner Seite ist der Aufstieg wenig steil und vergletschert, auf der Urner Seite eignet sich der sch\u00f6ne Ostgrat zum Klettern. Eine weitere M\u00f6glichkeit ist die \u00dcberschreitung vom Chli Sustenhorn \u2013 eine abgelegene Hochtour in wilder Kulisse.", "url": "https://bergsteigerschule-rosenlaui.ch/de/contact/formular", "image": "https://jrtagpimtsoch.sos-ch-dk-2.exoscale-cdn.com/catalog/2/8/b/c/28bc3b9498b7848c3fe0bbff42c5c7ea5126decd_csm_Sustenhorn_Thomas_Odermatt_7137622867.jpg", "openstreetmap_id": "node/286930156"}, "geometry": {"type": "Point", "coordinates": ["8.455202574806766", "46.69890624334866"]}}, {"type": "Feature", "properties": {"identifier": "4f02fdb5-828a-478c-aa01-8b7099ed2087", "name": "Historischer Dorfrundgang Meiringen", "description": "Der Rundgang f\u00fchrt uns vom Tourist Center am Bahnhof in Meiringen zum Casinoplatz, dem zentralen Platz von Meiringen. Hier erf\u00e4hrst du alles rund um Sherlock Holmes, die englische Kirche und Melchior Anderegg. Weiter f\u00fchrt uns die Tour zur Molki Meiringen, wo wir Haslitaler K\u00f6stlichkeiten degustieren k\u00f6nnen. Vorbei an der Alpbachbr\u00fccke gelangen wir in den historischen Kern von Meiringen. Zum Schluss f\u00fchren wir dich in die Konditorei und B\u00e4ckerei Frutal. Hier darfst du die s\u00fcssen Meringues versuchen.", "url": "https://haslital.swiss/de/", "image": "https://jrtagpimtsoch.sos-ch-dk-2.exoscale-cdn.com/catalog/b/b/2/1/bb2161534ad37d74d9e746580290c8f8ce5e749a_Dorfrundgang.jpg", "openstreetmap_id": "node/5007055738"}, "geometry": {"type": "Point", "coordinates": ["8.184385347615196", "46.72733763136784"]}}, {"type": "Feature", "properties": {"identifier": "6617e480-5b5b-458b-a4f0-7726b674a2fc", "name": "Pioniere im Wandel", "description": "smarTrails sind digitale R\u00e4tsel- und Erlebniswege, die dir an verschiedenen Orten in der Jungfrau Region kostenlos zur Verf\u00fcgung stehen.\n\nAlles, was du f\u00fcr die Teilnahme brauchst, ist ein internetf\u00e4higes Smartphone. \u00dcber eine virtuelle Karte wirst du zu verschiedenen Posten gef\u00fchrt. Sobald du dich bei den entsprechenden Koordinaten befindest, werden die digitalen Inhalte auf dem Handydisplay angezeigt.\n\nEntdecke heute auf der Wanderung entlang dem Eigergletscher hautnah, welche wirtschaftlichen Entwicklungen und Besonderheiten Grindelwald pr\u00e4gen.\n\nBegebe Dich auf die Spuren des UNESCO-Welterbe Swiss Alps Jungfrau-Aletsch in all seiner Einzigartigkeit, Vielfalt und Inspiration.\n\nLerne, welche Verpflichtung eine Auszeichnung als Weltnaturerbe mit sich bringt.", "url": "https://grindelwald.swiss", "image": "https://jrtagpimtsoch.sos-ch-dk-2.exoscale-cdn.com/catalog/1/3/2/0/1320efc5d29ee4b932ed884e956f67cbdc207227_Pioniere_im_Wandel.jpg", "openstreetmap_id": "node/7071956823"}, "geometry": {"type": "Point", "coordinates": ["7.975430488586427", "46.57575848084292"]}}, {"type": "Feature", "properties": {"identifier": "70b720d1-2ba7-4479-a97d-99b908d0e61d", "name": "Unterwegs im Wasserschloss Europas", "description": "smarTrails sind digitale R\u00e4tsel- und Erlebniswege, die dir an verschiedenen Orten in der Jungfrau Region kostenlos zur Verf\u00fcgung stehen.\n\nAlles, was du f\u00fcr die Teilnahme brauchst, ist ein internetf\u00e4higes Smartphone. \u00dcber eine virtuelle Karte wirst du zu verschiedenen Posten gef\u00fchrt. Sobald du dich bei den entsprechenden Koordinaten befindest, werden die digitalen Inhalte auf dem Handydisplay angezeigt.\n\nEntdecke auf der Wanderung von Alpiglen hinunter in die Gletscherschlucht, welche Bedeutung \u00abWasser\u00bb f\u00fcr Grindelwald und das gesamte UNESCO Welterbe Swiss Alps Jungfrau-Aletsch einnimmt und weshalb die Alpen als das Wasserschloss Europas gelten.\n\nLerne, welche Verpflichtung eine Auszeichnung als Weltnaturerbe mit sich bringt.", "url": "https://grindelwald.swiss", "image": "https://jrtagpimtsoch.sos-ch-dk-2.exoscale-cdn.com/catalog/4/2/6/4/42641e70c6a9ffa21c2d0b6ebf6ed9338270a0ce_Gletscherschlucht_Grindelwald.jpg", "openstreetmap_id": "node/7071956823"}, "geometry": {"type": "Point", "coordinates": ["8.046197891235353", "46.613306642832995"]}}, {"type": "Feature", "properties": {"identifier": "7665e71a-d3e6-4881-812e-63eb934bab76", "name": "Hangendgletscherhorn", "description": "Ein von der Gaulih\u00fctte aus einfach erreichbarer Skitourengipfel mit eindr\u00fccklichem Tiefblick. Der abwechslungsreiche Aufstieg lohnt sich allerdings auch im Sommer. Das Hangendgletscherhorn kann auch von der Dossenh\u00fctte aus bestiegen werden.", "url": "https://bergsteigerschule-rosenlaui.ch/de/contact/formular", "image": "https://jrtagpimtsoch.sos-ch-dk-2.exoscale-cdn.com/catalog/c/f/e/1/cfe16ed296a5e2c2d36d40d1dde32308f9d8cf35_csm_Gaulih__tte_Winter_Web_c95f7faf9a.jpg", "openstreetmap_id": "node/401457559"}, "geometry": {"type": "Point", "coordinates": ["8.182625287372087", "46.629340831125795"]}}, {"type": "Feature", "properties": {"identifier": "89504f14-4e64-492e-b8af-bd436674264e", "name": "Wendy's Sommer Mystery Trail", "description": "<p>smarTrails sind digitale R&auml;tsel- und Erlebniswege, die dir an verschiedenen Orten in der Jungfrau Region kostenlos zur Verf&uuml;gung stehen. Alles, was du f&uuml;r die Teilnahme brauchst, ist ein internetf&auml;higes Smartphone. &Uuml;ber eine virtuelle Karte wirst du zu verschiedenen Posten gef&uuml;hrt. Sobald du dich bei den entsprechenden Koordinaten befindest, werden die digitalen Inhalte auf dem Handydisplay angezeigt. Begleite Wendy auf diesem interaktiven R&auml;tsel-Trail und finde die Koordinaten, die dich zum Schatz f&uuml;hren - ein spannendes Erlebnis f&uuml;r Jung und Alt.</p>", "url": "https://wengen.swiss", "image": "https://jrtagpimtsoch.sos-ch-dk-2.exoscale-cdn.com/catalog/2/5/5/0/2550e2d230f010aa99feb508d7cdd64cd3559e79_Wendy_Mystery_Trail_Wengen.jpg", "openstreetmap_id": "node/10723247819"}, "geometry": {"type": "Point", "coordinates": ["7.9217902", "46.6059468"]}}, {"type": "Feature", "properties": {"identifier": "9fbb3813-eb57-4fb7-be0a-6b9686a5ec52", "name": "Wanderung im Tal der 72 Wasserf\u00e4lle", "description": "smarTrails sind digitale R\u00e4tsel- und Erlebniswege, die dir an verschiedenen Orten in der Jungfrau Region kostenlos zur Verf\u00fcgung stehen.\n\nAlles, was du f\u00fcr die Teilnahme brauchst, ist ein internetf\u00e4higes Smartphone. \u00dcber eine virtuelle Karte wirst du zu verschiedenen Posten gef\u00fchrt. Sobald du dich bei den entsprechenden Koordinaten befindest, werden die digitalen Inhalte auf dem Handydisplay angezeigt.\n\nErlebe die faszinierende Landschaft im sch\u00f6nsten Trogtal der Alpen und gehe auf Tuchf\u00fchlung mit den Wasserf\u00e4llen. Bewundere die h\u00f6chsten, malerischsten und tosendsten Wasserf\u00e4lle w\u00e4hrend der Wanderung von Lauterbrunnen nach Stechelberg.\n\nDie Wanderung ist einfach und auch f\u00fcr Kinderwagen geeignet (der Zugang zu den Tr\u00fcmmelbachf\u00e4llen ist f\u00fcr Kinder unter 4 Jahren nicht erlaubt).", "url": "https://lauterbrunnen.swiss", "image": "https://jrtagpimtsoch.sos-ch-dk-2.exoscale-cdn.com/catalog/4/6/3/4/4634b34762ce947255595ef11c22bf7391b3f630_Hintergrund_Lauterbrunnental_Sommer__3_.jpg", "openstreetmap_id": "relation/1682529"}, "geometry": {"type": "Point", "coordinates": ["7.9074736", "46.597084"]}}, {"type": "Feature", "properties": {"identifier": "a64928f1-158e-4da2-92fd-910240874512", "name": "Diechterhorn", "description": "Das Diechterhorn ist wie geschaffen f\u00fcr Sommer- und Winterbesteigungen. Zuerst von der H\u00fctte \u00fcber den mittelschweren Diechtergletscher, bis du  die Diechterlimmi auf 3215 m \u00fc. M. \u2013 ein \u00dcbergang zwischen Tieralplistock und Diechterhorn \u2013 erreichst. Der Aufstieg zum Gipfel erfolgt \u00fcber einen m\u00e4ssig geneigten Firnhang (von der Gelmerh\u00fctte aus in vier Stunden). Abstieg wie Aufstieg.", "url": "https://bergsteigerschule-rosenlaui.ch/de/contact/formular", "image": "https://jrtagpimtsoch.sos-ch-dk-2.exoscale-cdn.com/catalog/b/5/c/3/b5c32437e239aeb0a87ecf73858765ad043fa4ec_csm_Gelmerh__tte_007_2c37695463.jpg", "openstreetmap_id": "node/1244935631"}, "geometry": {"type": "Point", "coordinates": ["8.3605739", "46.6487047"]}}, {"type": "Feature", "properties": {"identifier": "b3400c5e-b988-4ec2-981b-e919884679aa", "name": "Szenischer Dorfrundgang Meiringen", "description": "<p>Lassen Sie sich beim szenischen Dorfrundgang vom Schauspieler Lukas Baumann in die Welt von Sherlock Holmes versetzen und besuchen Sie die Schaupl&auml;tze von &laquo;Das letzte Problem&raquo; in Meiringen</p>", "url": "https://haslital.swiss", "image": "https://jrtagpimtsoch.sos-ch-dk-2.exoscale-cdn.com/catalog/9/9/a/6/99a60a5690573a538b4cb7c7b56df9da4c4c5c6d_IMG_8825.jpg", "openstreetmap_id": "node/5007055738"}, "geometry": {"type": "Point", "coordinates": ["8.1842711", "46.7273586"]}}, {"type": "Feature", "properties": {"identifier": "b4335bed-4085-4651-871b-4e38fc160661", "name": "smarTrail Meiringen", "description": "smarTrails sind digitale R\u00e4tsel- und Erlebniswege, die dir an verschiedenen Orten in der Jungfrau Region kostenlos zur Verf\u00fcgung stehen.\n\nAlles, was du f\u00fcr die Teilnahme brauchst, ist ein internetf\u00e4higes Smartphone. \u00dcber eine virtuelle Karte wirst du zu verschiedenen Posten gef\u00fchrt. Sobald du dich bei den entsprechenden Koordinaten befindest, werden die digitalen Inhalte auf dem Handydisplay angezeigt.\n\nMach dich auf einen gem\u00fctlichen Bummel durch Meiringen. Besuche die Highlights und versuche die R\u00e4tsel vor Ort zu l\u00f6sen. So lernst du das Dorf auf eine spielerische Weise besser kennen. Es erwartet dich eine Rundtour, der Start befindet sich beim Bahnhof.", "url": "https://haslital.swiss", "image": "https://jrtagpimtsoch.sos-ch-dk-2.exoscale-cdn.com/catalog/c/4/9/4/c494be1ccc794ea1e4571c2298a0990ef5577b06_Smartrail_Meiringen.jpg", "openstreetmap_id": "way/154998781"}, "geometry": {"type": "Point", "coordinates": ["8.184271499234969", "46.72737855"]}}, {"type": "Feature", "properties": {"identifier": "bdde46e4-cb99-4df4-95e9-b8d6e79eeb6e", "name": "Gw\u00e4chtenhorn", "description": "Eine sehr lohnende Hoch- oder Skitour. Das Gw\u00e4chtenhorn wird \u2013 im Vergleich zum Sustenhorn, seinem bekannteren Nachbarn \u2013 selten begangen. \n\nDer Aufstieg von der Tierberglih\u00fctte ist \u00fcber die vergletscherte Ostflanke oder \u00fcber den felsigen Westgrat m\u00f6glich.", "url": "https://bergsteigerschule-rosenlaui.ch/de/contact/formular", "image": "https://jrtagpimtsoch.sos-ch-dk-2.exoscale-cdn.com/catalog/f/8/a/3/f8a372ddd13fb718f482ce63bb184390d6f6f52b_csm_Tierberglih__tte_Sustenhorn_Thomas_Odermatt_08bc70abc5.jpg", "openstreetmap_id": "node/286930140"}, "geometry": {"type": "Point", "coordinates": ["8.413367", "46.690836"]}}, {"type": "Feature", "properties": {"identifier": "c83c48aa-b8b4-457f-a606-e3761e4e23c8", "name": "Oberaarhorn", "description": "Das Oberaarhorn befindet sich westlich vom Grimselpass, von wo der Zustieg via Oberaarsee und Oberaargletscher erfolgt. Der Hausberg der Oberaarjochh\u00fctte wird gerne als \u00abSonnenaufgangsgipfel\u00bb betitelt.", "url": "https://bergsteigerschule-rosenlaui.ch/de/contact/formular", "image": "https://jrtagpimtsoch.sos-ch-dk-2.exoscale-cdn.com/catalog/5/d/9/d/5d9d7bcbacb2aba6857f4e62d79b046a21d35cb6_csm_Oberaarhorh_Willi_77e2e744e2.jpg", "openstreetmap_id": "node/601525417"}, "geometry": {"type": "Point", "coordinates": ["8.1745239", "46.5314515"]}}, {"type": "Feature", "properties": {"identifier": "d5cc0dc1-e027-4c08-bd39-88bbd51b239f", "name": "Dorfrundgang Wengen", "description": "<p>Der Rundgang f&uuml;hrt Sie durch das autofreie Dorf, vorbei an traditionellen Chalets, kleinen Hotels und sonnigen Aussichtspunkten. Unterwegs erfahren Sie Spannendes &uuml;ber die Geschichte des Ortes, die Entwicklung vom Bergbauerndorf zum beliebten Ferienziel und die Bedeutung des Tourismus f&uuml;r die Region.&nbsp;</p><p>Der Dorfrundgang ist ideal f&uuml;r G&auml;ste, die Wengen in ihrem eigenen Tempo entdecken m&ouml;chten &ndash; entspannt, informativ und mit vielen M&ouml;glichkeiten zum Verweilen und Geniessen.</p>", "url": "https://wengen.swiss/de/", "image": "https://jrtagpimtsoch.sos-ch-dk-2.exoscale-cdn.com/catalog/6/4/b/c/64bca6193736644df4b8bf0a28031b22f4e0befe_Dorfstrasse_Bernerhof.jpg", "openstreetmap_id": "way/282059913"}, "geometry": {"type": "Point", "coordinates": ["7.9218831", "46.6059913"]}}, {"type": "Feature", "properties": {"identifier": "e7b4cedd-fe0f-400c-9b9e-7174e1dfd84a", "name": "Klimawandel hautnah", "description": "smarTrails sind digitale R\u00e4tsel- und Erlebniswege, die dir an verschiedenen Orten in der Jungfrau Region kostenlos zur Verf\u00fcgung stehen.\n\nAlles, was du f\u00fcr die Teilnahme brauchst, ist ein internetf\u00e4higes Smartphone. \u00dcber eine virtuelle Karte wirst du zu verschiedenen Posten gef\u00fchrt. Sobald du dich bei den entsprechenden Koordinaten befindest, werden die digitalen Inhalte auf dem Handydisplay angezeigt.\n\nEntdecke heute auf der Wanderung von der Pfingstegg auf die B\u00e4regg hautnah, was der Klimawandel f\u00fcr Grindelwald und die Alpen bedeutet.\n\nBegib dich auf die Spuren des UNESCO-Welterbe Swiss Alps Jungfrau-Aletsch in all seiner Einzigartigkeit, Vielfalt und Inspiration.\n\nLerne, welche Verpflichtung eine Auszeichnung als Weltnaturerbe mit sich bringt.", "url": "https://grindelwald.swiss", "image": "https://jrtagpimtsoch.sos-ch-dk-2.exoscale-cdn.com/catalog/e/8/1/a/e81a4c137cc50c77bf0e6cf34d2dbb474cd068cd_Pfingstegg.jpg", "openstreetmap_id": "node/7071956823"}, "geometry": {"type": "Point", "coordinates": ["8.05602550506592", "46.61680333257931"]}}, {"type": "Feature", "properties": {"identifier": "eb26cffa-c8b0-40c2-a32f-cf62f79550a7", "name": "Die Natur als verg\u00e4ngliche Ressource", "description": "smarTrails sind digitale R\u00e4tsel- und Erlebniswege, die dir an verschiedenen Orten in der Jungfrau Region kostenlos zur Verf\u00fcgung stehen.\n\nAlles, was du f\u00fcr die Teilnahme brauchst, ist ein internetf\u00e4higes Smartphone. \u00dcber eine virtuelle Karte wirst du zu verschiedenen Posten gef\u00fchrt. Sobald du dich bei den entsprechenden Koordinaten befindest, werden die digitalen Inhalte auf dem Handydisplay angezeigt.\n\nEntdecke auf der Wanderung von der First auf die Grosse Scheidegg und weiter zum Oberen Lauchb\u00fchl verschiedene, beispielhafte Traditionen \u00abOriginal Grindelwald\u00bb.\n\nBegib dich auf die Spuren des UNESCO-Welterbe Swiss Alps Jungfrau-Aletsch in all seiner Einzigartigkeit, Vielfalt und Inspiration.\n\nLerne, welche Verpflichtung eine Auszeichnung als Weltnaturerbe mit sich bringt.", "url": "https://grindelwald.swiss", "image": "https://jrtagpimtsoch.sos-ch-dk-2.exoscale-cdn.com/catalog/c/8/8/3/c8836aa81b30df043689501ef7bb961225f0ad9f_Grosse_Scheidegg.jpg", "openstreetmap_id": "node/303186096"}, "geometry": {"type": "Point", "coordinates": ["8.101939558982851", "46.65591621159877"]}}, {"type": "Feature", "properties": {"identifier": "f02e3990-ee77-4110-b1bc-8ae805ca80b4", "name": "Rosenhorn", "description": "Das Rosenhorn ist im Sommer und im Winter ein beliebtes Ziel f\u00fcr Bergsteiger*innen. Der Gipfel ist von der Dossenh\u00fctte oder der Gaulih\u00fctte aus erreichbar. Das Rosenhorn ist der tiefste Gipfel des Wetterhorn-Massivs (Mittelhorn und Wetterhorn). \n\nAbstieg zur Glecksteinh\u00fctte, Gaulih\u00fctte oder retour zur Dossenh\u00fctte.", "url": "https://bergsteigerschule-rosenlaui.ch/de/contact/formular", "image": "https://jrtagpimtsoch.sos-ch-dk-2.exoscale-cdn.com/catalog/5/b/0/9/5b0962bde8233f4253a92363d3d35550ef978df4_csm_Rosenhorn_1_Willi_5cefc91f03.jpg", "openstreetmap_id": "node/401457560"}, "geometry": {"type": "Point", "coordinates": ["8.1372459", "46.6318799"]}}]}