{"type": "FeatureCollection", "features": [{"type": "Feature", "properties": {"identifier": "0c0e704d-dd03-412a-9cd7-ce4a3e075e24", "name": "Lauterbrunnen 360\u00b0", "image": "https://jrtagpimtsoch.sos-ch-dk-2.exoscale-cdn.com/catalog/7/c/6/6/7c66cd384089ddcff3dc3cb62b35f193d42f6628_latestpreview.jpg", "openstreetmap_id": "relation/1682529"}, "geometry": {"type": "Point", "coordinates": ["7.9078016", "46.5939043"]}}, {"type": "Feature", "properties": {"identifier": "f1c6b202-c1e5-4c4f-a900-a3253c63688e", "name": "Pfingstegg", "image": "https://jrtagpimtsoch.sos-ch-dk-2.exoscale-cdn.com/catalog/a/2/2/2/a222d5a79e8ca3f7c40d8d3a8d5c8f3269264b79_Pfingstegg_2025_1011_004000.jpg", "openstreetmap_id": "node/6845397401"}, "geometry": {"type": "Point", "coordinates": ["8.056427836418154", "46.617411440402215"]}}, {"type": "Feature", "properties": {"identifier": "fb83e590-cfa2-484a-a232-fcf80897fb26", "name": "Station Eigergletscher", "image": "https://jrtagpimtsoch.sos-ch-dk-2.exoscale-cdn.com/catalog/7/f/3/3/7f338e5abb7076c3a5da5a2c84d632a3624c8357_Eigergletscher_Luftaufnahme_Abendstimmung_Winter_2.jpg", "openstreetmap_id": "node/12142157197"}, "geometry": {"type": "Point", "coordinates": ["7.9751857", "46.5754214"]}}]}